satname,norad_id,inclination_deg,eccentricity,mean_motion_rev_per_day,perigee_km,apogee_km,l1,l2
STARLINK-1008,44714,53.149,0.0004885,15.53779439,402.38906613271956,409.01687778532323,1 44714U 19074B   26198.51235889  .00038508  00000+0  59416-3 0  9999,2 44714  53.1490 283.1151 0004885 327.6938  32.3773 15.53779439368924
STARLINK-1012,44718,53.154,0.0005344,15.54214419,400.8125705579623,408.06178583962173,1 44718U 19074F   26198.69453111  .00039820  00000+0  60438-3 0  9996,2 44718  53.1540 282.4439 0005344 335.3346  24.7409 15.54214419368941
STARLINK-1017,44723,53.0463,9.5e-05,15.34306675,462.3307296588564,463.63054200966417,1 44723U 19074L   26197.53730790  .00020034  00000+0  60421-3 0  9994,2 44723  53.0463 292.1202 0000950  89.8524 270.2586 15.34306675368682
STARLINK-1020,44725,53.1554,0.0004463,15.60205628,384.04329188042993,390.0819090438017,1 44725U 19074N   26198.63788535  .00050674  00000+0  61299-3 0  9995,2 44725  53.1554 305.1648 0004463 301.2346  58.8230 15.60205628368604
STARLINK-1036,44741,53.0409,0.0003035,15.77705314,334.90587151391355,338.9819256193432,1 44741U 19074AE  26198.60425971  .00044591  00000+0  26331-3 0  9991,2 44741  53.0409 269.1000 0003035  19.3285 340.7849 15.77705314369092
STARLINK-1039,44744,53.0601,0.0001707,15.31300355,470.7622685579963,473.1008819695917,1 44744U 19074AH  26197.77229541  .00020901  00000+0  69189-3 0  9993,2 44744  53.0601 337.2743 0001707 196.1435 163.9511 15.31300355368079
STARLINK-1042,44747,53.0398,0.00012,15.55905005,398.7098475493358,400.33648598935906,1 44747U 19074AL  26198.00682549  .00014823  00000+0  21655-3 0  9996,2 44747  53.0398 191.3606 0001200  50.9622 309.1495 15.55905005370162
STARLINK-1043,44748,53.0478,0.0002488,15.67446433,364.53401259008206,367.89000065577784,1 44748U 19074AM  26198.61729316  .00039974  00000+0  36545-3 0  9996,2 44748  53.0478 282.0052 0002488   9.6076 350.4987 15.67446433368922
STARLINK-1046,44751,53.047,0.0003619,15.60508948,383.73791782745957,388.6339347615112,1 44751U 19074AQ  26198.70327638  .00045736  00000+0  54784-3 0  9999,2 44751  53.0470 305.2252 0003619 266.7003  93.3595 15.60508948368607
STARLINK-1047,44752,53.0663,0.0001233,15.35588131,458.33110116342414,460.01718209095,1 44752U 19074AR  26198.60654287  .00017965  00000+0  52154-3 0  9994,2 44752  53.0663 257.7880 0001233 292.5082  67.5789 15.35588131369281
STARLINK-1048,44753,53.0418,0.0001202,15.71432505,353.9928042368874,355.61140279737356,1 44753U 19074AS  26198.52030705  .00033143  00000+0  25815-3 0  9999,2 44753  53.0418 252.8468 0001202 132.1956 227.9163 15.71432505369318
STARLINK-1063,44768,53.1542,0.0003194,15.53932123,403.09197701530957,407.4252101204811,1 44768U 19074BH  26198.71764678  .00041975  00000+0  64330-3 0  9996,2 44768  53.1542 323.1620 0003194 310.5592  49.5140 15.53932123368396
STARLINK-1067,44771,53.0394,0.0007069,15.84708444,312.41291790758805,321.87870874907094,1 44771U 19074BL  26198.61171209  .00081326  00000+0  34339-3 0  9991,2 44771  53.0394 280.9163 0007069 349.6340  10.4536 15.84708444368932
STARLINK-1068,44772,53.0374,0.0006198,15.8197095,320.71288878380255,329.0219330515756,1 44772U 19074BM  26198.66997862  .00058086  00000+0  28088-3 0  9999,2 44772  53.0374 254.8943 0006198 359.9956   0.1064 15.81970950369298
STARLINK-1114,44927,53.0397,0.0001258,15.73808398,347.1780115317588,348.87031368026965,1 44927U 20001P   26198.70990838  .00034309  00000+0  24147-3 0  9998,2 44927  53.0397  54.2207 0001258 235.0185 125.0715 15.73808398360412
STARLINK-1123,44930,53.139,0.0006063,15.64190889,371.47198329366984,379.661524465625,1 44930U 20001S   26198.72190497  .00055614  00000+0  57534-3 0  9995,2 44930  53.1390  84.2269 0006063  90.8871 269.2839 15.64190889360012
STARLINK-1094,44941,53.1492,0.0005656,15.59447175,385.4283343315574,393.0836092612544,1 44941U 20001AD  26198.66474562  .00051152  00000+0  63661-3 0  9999,2 44941  53.1492  60.8315 0005656 112.8071 247.3540 15.59447175360342
STARLINK-1122,44949,53.1518,0.0005582,15.58958502,386.8917598688231,394.44845612419067,1 44949U 20001AM  26198.60998382  .00052959  00000+0  67104-3 0  9994,2 44949  53.1518  61.6942 0005582 104.3027 255.8607 15.58958502360325
STARLINK-1080,44961,53.0443,0.0001377,15.71717573,353.0609472414044,354.91497445562254,1 44961U 20001AZ  26198.47528029  .00038876  00000+0  29820-3 0  9995,2 44961  53.0443  15.9148 0001377 197.7167 162.3802 15.71717573360936
STARLINK-1090,44968,53.1465,0.0004395,15.55135868,398.77794289410303,404.7374703412197,1 44968U 20001BG  26198.69726682  .00014242  00000+0  21426-3 0  9996,2 44968  53.1465  50.1043 0004395 112.1361 248.0117 15.55135868360498
STARLINK-1132,45044,53.15,0.000451,15.61780435,379.465030822118,385.56313810030133,1 45044U 20006A   26198.72681485  .00240573  00000+0  26542-2 0  9993,2 45044  53.1500 349.4489 0004510 150.2172 209.9100 15.61780435357121
STARLINK-1131,45047,53.1537,6.1e-05,15.59548903,388.54888819259213,389.37447423170033,1 45047U 20006D   26198.49892027  .00018496  00000+0  23439-3 0  9996,2 45047  53.1537  24.2995 0000610  90.8355 269.2729 15.59548903356611
STARLINK-1134,45048,53.0237,0.000534,15.63443086,374.1125090666528,381.3277644887321,1 45048U 20006E   26198.64091368  .00024812  00000+0  26854-3 0  9996,2 45048  53.0237 331.0645 0005340 231.2241 128.8296 15.63443086357340
STARLINK-1156,45054,53.1569,0.0003441,15.38299906,448.7864403302365,453.4863462795083,1 45054U 20006L   26197.82285955  .00026633  00000+0  70299-3 0  9994,2 45054  53.1569  38.3677 0003441 124.9135 235.2193 15.38299906356359
STARLINK-1166,45060,53.0435,7.52e-05,15.69249894,360.53693297415066,361.55050575434325,1 45060U 20006S   26198.69933257  .00032679  00000+0  27873-3 0  9999,2 45060  53.0435   3.0344 0000752 338.3318  21.7666 15.69249894356902
STARLINK-1169,45061,53.1535,0.000438,15.41916882,437.46575376320015,443.4388379863867,1 45061U 20006T   26197.70395187  .00035995  00000+0  83931-3 0  9996,2 45061  53.1535  36.5351 0004380  99.3198 260.8303 15.41916882356378
STARLINK-1171,45062,53.0382,0.0002248,15.80657265,327.0731399273254,330.08848025474344,1 45062U 20006U   26198.63622170  .00062947  00000+0  32325-3 0  9993,2 45062  53.0382 325.4035 0002248 352.8223   7.2766 15.80657265357427
STARLINK-1133,45064,53.1554,0.0003435,15.3819085,449.1132150671665,453.8051476437586,1 45064U 20006W   26198.51067146  .00026340  00000+0  69785-3 0  9995,2 45064  53.1554  11.9325 0003435 130.8878 229.2424 15.38190850356790
STARLINK-1167,45071,53.155,0.000225,15.40956117,441.75137914797506,444.8210195876909,1 45071U 20006AD  26198.51112424  .00029930  00000+0  72281-3 0  9996,2 45071  53.1550  10.2573 0002250  65.0648 295.0591 15.40956117356817
STARLINK-1168,45072,53.1567,0.0002818,15.38774223,447.8088418112957,451.65702930697717,1 45072U 20006AE  26198.48099509  .00026217  00000+0  68167-3 0  9994,2 45072  53.1567  12.1659 0002818 123.4493 236.6782 15.38774223356781
STARLINK-1172,45074,53.1541,0.0001477,15.42006924,439.17978947767733,441.19392234471434,1 45074U 20006AG  26198.50722292  .00030260  00000+0  70565-3 0  9999,2 45074  53.1541   9.3156 0001477  71.1227 288.9939 15.42006924356829
STARLINK-1153,45080,53.1587,0.0003827,15.40969874,440.635057374373,445.856143616792,1 45080U 20006AN  26198.49295727  .00014394  00000+0  35317-3 0  9998,2 45080  53.1587  10.2511 0003827  71.1345 289.0075 15.40969874356816
STARLINK-1151,45081,53.0429,0.0011984,16.04813559,253.15289466644936,269.06584036010645,1 45081U 20006AP  26198.67904626  .00308634  54162-4  44217-3 0  9999,2 45081  53.0429 308.8505 0011984 334.4346  25.6091 16.04813559357653
STARLINK-1185,45087,53.1592,0.0001974,15.50340187,414.3909373611268,417.07315686092716,1 45087U 20006AV  26197.69614754  .00023299  00000+0  41058-3 0  9994,2 45087  53.1592 351.6573 0001974 155.7841 204.3262 15.50340187357001
STARLINK-1183,45088,53.1573,0.0002225,15.38089853,450.23849842408526,453.2778017658784,1 45088U 20006AW  26198.40756176  .00028130  00000+0  74691-3 0  9998,2 45088  53.1573 357.2578 0002225 148.8674 211.2462 15.38089853356986
STARLINK-1152,45096,53.0318,0.000326,15.53760657,403.54609131191137,407.96919061782137,1 45096U 20006BE  26198.72172537  .00056855  00000+0  87248-3 0  9992,2 45096  53.0318 305.9562 0003260 298.1651  61.9029 15.53760657357703
STARLINK-1184,45098,53.0545,0.0004098,15.15962919,515.2307076331972,520.8828280453181,1 45098U 20006BG  26198.51585436  .00013187  00000+0  69375-3 0  9999,2 45098  53.0545  16.4079 0004098 149.6185 210.5046 15.15962919356697
STARLINK-1193,45100,53.0463,0.0003729,15.72071217,350.46827696854143,355.48834276664,1 45100U 20006BJ  26198.30344663  .00038663  00000+0  29215-3 0  9990,2 45100  53.0463 314.4966 0003729  59.6562 300.4824 15.72071217357548
STARLINK-1143,45179,53.0253,0.0006945,16.14918273,228.79372622297433,237.97713087623106,1 45179U 20012B   26197.78907179  .00678466  28025-3  50132-3 0  9995,2 45179  53.0253  39.5704 0006945 271.5507  88.4733 16.14918273356363
STARLINK-1202,45183,53.1541,0.0004516,15.37780322,449.5898251613935,455.75941421629705,1 45183U 20012F   26198.29282322  .00025937  00000+0  69648-3 0  9993,2 45183  53.1541 154.6009 0004516  35.1788 324.9514 15.37780322354834
STARLINK-1216,45185,53.1545,0.0002865,15.38559786,448.4109779230257,452.32371091237746,1 45185U 20012H   26198.58663172  .00123641  00000+0  31586-2 0  9993,2 45185  53.1545 152.9674 0002865  38.9814 321.1396 15.38559786354820
STARLINK-1225,45187,53.155,0.0004868,15.38256158,447.94132237958274,454.5904290193639,1 45187U 20012K   26198.26043890  .00025213  00000+0  66703-3 0  9995,2 45187  53.1550 154.9647 0004868  40.8571 319.2797 15.38256158354816
STARLINK-1230,45189,53.1546,0.0004887,15.38157475,448.2203016248777,454.8956454920344,1 45189U 20012M   26198.27518965  .00027473  00000+0  72801-3 0  9994,2 45189  53.1546 155.0047 0004887  40.5451 319.5917 15.38157475352046
